{
    "links": {
        "self": "http://www.neowsapp.com/rest/v1/neo/3835953?api_key=iIulBulltgU6a56xZRHN4H3l9WmuAYTsLGpBGhQ2"
    },
    "id": "3835953",
    "neo_reference_id": "3835953",
    "name": "(2018 VU)",
    "designation": "2018 VU",
    "nasa_jpl_url": "http://ssd.jpl.nasa.gov/sbdb.cgi?sstr=3835953",
    "absolute_magnitude_h": 25.6,
    "estimated_diameter": {
        "kilometers": {
            "estimated_diameter_min": 0.0201629919,
            "estimated_diameter_max": 0.0450858206
        },
        "meters": {
            "estimated_diameter_min": 20.1629919443,
            "estimated_diameter_max": 45.0858206172
        },
        "miles": {
            "estimated_diameter_min": 0.0125286985,
            "estimated_diameter_max": 0.0280150214
        },
        "feet": {
            "estimated_diameter_min": 66.1515504905,
            "estimated_diameter_max": 147.9193637137
        }
    },
    "is_potentially_hazardous_asteroid": false,
    "close_approach_data": [
        {
            "close_approach_date": "2018-05-18",
            "close_approach_date_full": "2018-May-18 06:12",
            "epoch_date_close_approach": 1526623920000,
            "relative_velocity": {
                "kilometers_per_second": "12.9782466141",
                "kilometers_per_hour": "46721.6878109234",
                "miles_per_hour": "29031.0398511818"
            },
            "miss_distance": {
                "astronomical": "0.2896753167",
                "lunar": "112.6836981963",
                "kilometers": "43334810.369895429",
                "miles": "26927002.5421537602"
            },
            "orbiting_body": "Earth"
        },
        {
            "close_approach_date": "2018-10-29",
            "close_approach_date_full": "2018-Oct-29 04:08",
            "epoch_date_close_approach": 1540786080000,
            "relative_velocity": {
                "kilometers_per_second": "13.5238448544",
                "kilometers_per_hour": "48685.8414757943",
                "miles_per_hour": "30251.488554779"
            },
            "miss_distance": {
                "astronomical": "0.0660979376",
                "lunar": "25.7120977264",
                "kilometers": "9888110.676352912",
                "miles": "6144187.0645457056"
            },
            "orbiting_body": "Earth"
        },
        {
            "close_approach_date": "2022-04-14",
            "close_approach_date_full": "2022-Apr-14 22:52",
            "epoch_date_close_approach": 1649976720000,
            "relative_velocity": {
                "kilometers_per_second": "12.6067251685",
                "kilometers_per_hour": "45384.2106064672",
                "miles_per_hour": "28199.9835293351"
            },
            "miss_distance": {
                "astronomical": "0.4985570295",
                "lunar": "193.9386844755",
                "kilometers": "74583069.686727165",
                "miles": "46343770.514138277"
            },
            "orbiting_body": "Earth"
        }
    ],
    "orbital_data": {
        "orbit_id": "2",
        "orbit_determination_date": "2018-11-07 06:35:32",
        "first_observation_date": "2018-11-01",
        "last_observation_date": "2018-11-07",
        "data_arc_in_days": 6,
        "observations_used": 35,
        "orbit_uncertainty": "8",
        "minimum_orbit_intersection": ".065171",
        "jupiter_tisserand_invariant": "5.086",
        "epoch_osculation": "2458424.5",
        "eccentricity": ".1983984600298412",
        "semi_major_axis": "1.234290580900177",
        "inclination": "24.33034977235536",
        "ascending_node_longitude": "218.5775337649368",
        "orbital_period": "500.8694568480718",
        "perihelion_distance": ".9894092304202434",
        "perihelion_argument": "125.8076623343021",
        "aphelion_distance": "1.47917193138011",
        "perihelion_time": "2458371.623659928245",
        "mean_anomaly": "38.0048776493988",
        "mean_motion": ".7187501555104775",
        "equinox": "J2000",
        "orbit_class": {
            "orbit_class_type": "APO",
            "orbit_class_description": "Near-Earth asteroid orbits which cross the Earth’s orbit similar to that of 1862 Apollo",
            "orbit_class_range": "a (semi-major axis) > 1.0 AU; q (perihelion) < 1.017 AU"
        }
    },
    "is_sentry_object": false
}